[{"OBJECT_NAME":"PROBA-1","OBJECT_ID":"2001-049B","EPOCH":"2026-04-25T19:52:31.536192","MEAN_MOTION":15.07292716,"ECCENTRICITY":0.0054052,"INCLINATION":97.9622,"RA_OF_ASC_NODE":122.5367,"ARG_OF_PERICENTER":300.8739,"MEAN_ANOMALY":58.7178,"EPHEMERIS_TYPE":0,"CLASSIFICATION_TYPE":"U","NORAD_CAT_ID":26958,"ELEMENT_SET_NO":999,"REV_AT_EPOCH":33573,"BSTAR":0.0001565,"MEAN_MOTION_DOT":2.368e-5,"MEAN_MOTION_DDOT":0},{"OBJECT_NAME":"CUTE-1 (CO-55)","OBJECT_ID":"2003-031E","EPOCH":"2026-04-24T23:59:01.877856","MEAN_MOTION":14.24301171,"ECCENTRICITY":0.00092051,"INCLINATION":98.6757,"RA_OF_ASC_NODE":124.2245,"ARG_OF_PERICENTER":347.545,"MEAN_ANOMALY":12.55,"EPHEMERIS_TYPE":0,"CLASSIFICATION_TYPE":"U","NORAD_CAT_ID":27844,"ELEMENT_SET_NO":999,"REV_AT_EPOCH":18410,"BSTAR":0.00012495833,"MEAN_MOTION_DOT":2.45e-6,"MEAN_MOTION_DDOT":0},{"OBJECT_NAME":"CUBESAT XI-IV (CO-57)","OBJECT_ID":"2003-031J","EPOCH":"2026-04-25T10:52:35.529600","MEAN_MOTION":14.2359143,"ECCENTRICITY":0.0009461,"INCLINATION":98.6791,"RA_OF_ASC_NODE":124.4281,"ARG_OF_PERICENTER":4.9021,"MEAN_ANOMALY":355.2248,"EPHEMERIS_TYPE":0,"CLASSIFICATION_TYPE":"U","NORAD_CAT_ID":27848,"ELEMENT_SET_NO":999,"REV_AT_EPOCH":18387,"BSTAR":0.00012291,"MEAN_MOTION_DOT":2.36e-6,"MEAN_MOTION_DDOT":0},{"OBJECT_NAME":"APRIZESAT 4","OBJECT_ID":"2009-041D","EPOCH":"2026-04-25T17:25:56.345376","MEAN_MOTION":14.8379708,"ECCENTRICITY":0.0044421,"INCLINATION":98.1424,"RA_OF_ASC_NODE":190.0017,"ARG_OF_PERICENTER":130.7481,"MEAN_ANOMALY":229.7602,"EPHEMERIS_TYPE":0,"CLASSIFICATION_TYPE":"U","NORAD_CAT_ID":35684,"ELEMENT_SET_NO":999,"REV_AT_EPOCH":90358,"BSTAR":9.6939e-5,"MEAN_MOTION_DOT":7.58e-6,"MEAN_MOTION_DDOT":0},{"OBJECT_NAME":"APRIZESAT 3","OBJECT_ID":"2009-041F","EPOCH":"2026-04-25T09:32:57.973344","MEAN_MOTION":14.96056044,"ECCENTRICITY":0.0060838,"INCLINATION":98.1994,"RA_OF_ASC_NODE":266.1202,"ARG_OF_PERICENTER":240.9247,"MEAN_ANOMALY":118.5872,"EPHEMERIS_TYPE":0,"CLASSIFICATION_TYPE":"U","NORAD_CAT_ID":35686,"ELEMENT_SET_NO":999,"REV_AT_EPOCH":90848,"BSTAR":9.732e-5,"MEAN_MOTION_DOT":1.064e-5,"MEAN_MOTION_DDOT":0},{"OBJECT_NAME":"PROBA-2","OBJECT_ID":"2009-059B","EPOCH":"2026-04-25T18:20:39.108192","MEAN_MOTION":14.54839118,"ECCENTRICITY":0.001457,"INCLINATION":98.2451,"RA_OF_ASC_NODE":299.8446,"ARG_OF_PERICENTER":83.6741,"MEAN_ANOMALY":276.6115,"EPHEMERIS_TYPE":0,"CLASSIFICATION_TYPE":"U","NORAD_CAT_ID":36037,"ELEMENT_SET_NO":999,"REV_AT_EPOCH":87390,"BSTAR":5.0301e-5,"MEAN_MOTION_DOT":1.71e-6,"MEAN_MOTION_DDOT":0},{"OBJECT_NAME":"APRIZESAT 5","OBJECT_ID":"2011-044E","EPOCH":"2026-04-25T18:45:53.830656","MEAN_MOTION":14.80968305,"ECCENTRICITY":0.0052451,"INCLINATION":98.2435,"RA_OF_ASC_NODE":47.3492,"ARG_OF_PERICENTER":170.0363,"MEAN_ANOMALY":190.1902,"EPHEMERIS_TYPE":0,"CLASSIFICATION_TYPE":"U","NORAD_CAT_ID":37792,"ELEMENT_SET_NO":999,"REV_AT_EPOCH":79103,"BSTAR":0.00010021,"MEAN_MOTION_DOT":7.35e-6,"MEAN_MOTION_DDOT":0},{"OBJECT_NAME":"APRIZESAT 6","OBJECT_ID":"2011-044F","EPOCH":"2026-04-25T16:59:15.099360","MEAN_MOTION":14.76842626,"ECCENTRICITY":0.0041834,"INCLINATION":98.239,"RA_OF_ASC_NODE":25.1312,"ARG_OF_PERICENTER":253.4905,"MEAN_ANOMALY":170.0029,"EPHEMERIS_TYPE":0,"CLASSIFICATION_TYPE":"U","NORAD_CAT_ID":37793,"ELEMENT_SET_NO":999,"REV_AT_EPOCH":78940,"BSTAR":9.0313e-5,"MEAN_MOTION_DOT":5.86e-6,"MEAN_MOTION_DDOT":0},{"OBJECT_NAME":"PROBA-V","OBJECT_ID":"2013-021A","EPOCH":"2026-04-25T19:50:59.815680","MEAN_MOTION":14.23585468,"ECCENTRICITY":0.0003033,"INCLINATION":98.356,"RA_OF_ASC_NODE":97.028,"ARG_OF_PERICENTER":293.9562,"MEAN_ANOMALY":66.13,"EPHEMERIS_TYPE":0,"CLASSIFICATION_TYPE":"U","NORAD_CAT_ID":39159,"ELEMENT_SET_NO":999,"REV_AT_EPOCH":67366,"BSTAR":5.5117e-5,"MEAN_MOTION_DOT":8.4e-7,"MEAN_MOTION_DDOT":0},{"OBJECT_NAME":"APRIZESAT 7","OBJECT_ID":"2013-066A","EPOCH":"2026-04-25T19:48:36.530784","MEAN_MOTION":14.91431282,"ECCENTRICITY":0.0036661,"INCLINATION":97.7667,"RA_OF_ASC_NODE":69.8157,"ARG_OF_PERICENTER":27.172,"MEAN_ANOMALY":333.1407,"EPHEMERIS_TYPE":0,"CLASSIFICATION_TYPE":"U","NORAD_CAT_ID":39416,"ELEMENT_SET_NO":999,"REV_AT_EPOCH":67342,"BSTAR":0.00014799,"MEAN_MOTION_DOT":1.44e-5,"MEAN_MOTION_DDOT":0},{"OBJECT_NAME":"APRIZESAT 8","OBJECT_ID":"2013-066K","EPOCH":"2026-04-25T19:26:47.040288","MEAN_MOTION":14.87534638,"ECCENTRICITY":0.0047519,"INCLINATION":97.8182,"RA_OF_ASC_NODE":64.0265,"ARG_OF_PERICENTER":97.9892,"MEAN_ANOMALY":262.672,"EPHEMERIS_TYPE":0,"CLASSIFICATION_TYPE":"U","NORAD_CAT_ID":39425,"ELEMENT_SET_NO":999,"REV_AT_EPOCH":67188,"BSTAR":0.00010889,"MEAN_MOTION_DOT":9.52e-6,"MEAN_MOTION_DDOT":0},{"OBJECT_NAME":"BUGSAT-1 (TITA)","OBJECT_ID":"2014-033E","EPOCH":"2026-04-25T19:15:57.573216","MEAN_MOTION":15.15046786,"ECCENTRICITY":0.002823,"INCLINATION":98.0396,"RA_OF_ASC_NODE":205.317,"ARG_OF_PERICENTER":2.4975,"MEAN_ANOMALY":357.6391,"EPHEMERIS_TYPE":0,"CLASSIFICATION_TYPE":"U","NORAD_CAT_ID":40014,"ELEMENT_SET_NO":999,"REV_AT_EPOCH":64790,"BSTAR":0.00027582,"MEAN_MOTION_DOT":5.132e-5,"MEAN_MOTION_DDOT":0},{"OBJECT_NAME":"SAUDISAT 4","OBJECT_ID":"2014-033G","EPOCH":"2026-04-25T20:08:53.093760","MEAN_MOTION":14.79464941,"ECCENTRICITY":0.0043579,"INCLINATION":97.751,"RA_OF_ASC_NODE":263.8078,"ARG_OF_PERICENTER":242.8791,"MEAN_ANOMALY":116.7974,"EPHEMERIS_TYPE":0,"CLASSIFICATION_TYPE":"U","NORAD_CAT_ID":40016,"ELEMENT_SET_NO":999,"REV_AT_EPOCH":63833,"BSTAR":0.00010774,"MEAN_MOTION_DOT":7.65e-6,"MEAN_MOTION_DDOT":0},{"OBJECT_NAME":"APRIZESAT 9","OBJECT_ID":"2014-033J","EPOCH":"2026-04-25T19:23:22.910784","MEAN_MOTION":14.74154326,"ECCENTRICITY":0.0066362,"INCLINATION":97.8979,"RA_OF_ASC_NODE":250.3108,"ARG_OF_PERICENTER":9.9409,"MEAN_ANOMALY":350.3095,"EPHEMERIS_TYPE":0,"CLASSIFICATION_TYPE":"U","NORAD_CAT_ID":40018,"ELEMENT_SET_NO":999,"REV_AT_EPOCH":63584,"BSTAR":8.6519e-5,"MEAN_MOTION_DOT":5.38e-6,"MEAN_MOTION_DDOT":0},{"OBJECT_NAME":"APRIZESAT 10","OBJECT_ID":"2014-033K","EPOCH":"2026-04-25T19:30:48.924864","MEAN_MOTION":14.70832944,"ECCENTRICITY":0.008021,"INCLINATION":97.9569,"RA_OF_ASC_NODE":243.9661,"ARG_OF_PERICENTER":81.2716,"MEAN_ANOMALY":279.7565,"EPHEMERIS_TYPE":0,"CLASSIFICATION_TYPE":"U","NORAD_CAT_ID":40019,"ELEMENT_SET_NO":999,"REV_AT_EPOCH":63455,"BSTAR":8.819e-5,"MEAN_MOTION_DOT":5.14e-6,"MEAN_MOTION_DDOT":0},{"OBJECT_NAME":"TECHDEMOSAT-1 (TDS-1)","OBJECT_ID":"2014-037H","EPOCH":"2026-04-25T20:11:35.875680","MEAN_MOTION":15.1244605,"ECCENTRICITY":0.0008115,"INCLINATION":98.3812,"RA_OF_ASC_NODE":102.9079,"ARG_OF_PERICENTER":87.0136,"MEAN_ANOMALY":273.2021,"EPHEMERIS_TYPE":0,"CLASSIFICATION_TYPE":"U","NORAD_CAT_ID":40076,"ELEMENT_SET_NO":999,"REV_AT_EPOCH":64031,"BSTAR":0.00063123,"MEAN_MOTION_DOT":0.00010914,"MEAN_MOTION_DDOT":0},{"OBJECT_NAME":"TECHNOSAT","OBJECT_ID":"2017-042E","EPOCH":"2026-04-25T20:24:08.229600","MEAN_MOTION":15.04631342,"ECCENTRICITY":0.0016426,"INCLINATION":97.4231,"RA_OF_ASC_NODE":275.5291,"ARG_OF_PERICENTER":272.5299,"MEAN_ANOMALY":87.4047,"EPHEMERIS_TYPE":0,"CLASSIFICATION_TYPE":"U","NORAD_CAT_ID":42829,"ELEMENT_SET_NO":999,"REV_AT_EPOCH":47883,"BSTAR":0.0003002,"MEAN_MOTION_DOT":4.171e-5,"MEAN_MOTION_DDOT":0}]
